ONEWEB-0056             
1 45159U 20008AE  26147.20876803 -.00000057  00000+0 -20004-3 0  9990
2 45159  87.8862  40.4361 0001747  88.9483 271.1844 13.10370905305433
ONEWEB-0057             
1 45160U 20008AF  26147.22566503  .00002625  00000+0  74845-2 0  9999
2 45160  87.8872  40.4456 0002776  78.7838 281.3601 13.10345379305605
ONEWEB-0058             
1 45161U 20008AG  26147.21235811  .00000155  00000+0  40876-3 0  9998
2 45161  87.8856  40.4551 0001691  72.9309 287.2004 13.10376849305673
ONEWEB-0059             
1 45162U 20008AH  26147.20904721 -.00000004  00000+0 -46519-4 0  9997
2 45162  87.8855  40.4548 0001873  73.6194 286.5139 13.10371838305574
ONEWEB-0062             
1 45163U 20008AJ  26147.23201365  .00000751  00000+0  21150-2 0  9994
2 45163  87.8857  40.4360 0001412  73.1469 286.9813 13.10372289305448
ONEWEB-0065             
1 45164U 20008AK  26147.18883524 -.00000563  00000+0 -16502-2 0  9990
2 45164  87.8858  40.4528 0002122  86.5420 273.5950 13.10372858305132
ONEWEB-0066             
1 45424U 20020A   26147.16508036 -.00000076  00000+0 -24918-3 0  9993
2 45424  87.8909  25.2537 0001856  76.4781 283.6554 13.11418812299923
ONEWEB-0067             
1 45425U 20020B   26147.20307356  .00000229  00000+0  61149-3 0  9996
2 45425  87.8926  25.1646 0001977  84.1658 275.9696 13.11420961299981
ONEWEB-0080             
1 45426U 20020C   26147.20252319  .00000246  00000+0  65901-3 0  9994
2 45426  87.8917  25.2410 0001480  79.0152 281.1142 13.11414207299951
ONEWEB-0090             
1 45427U 20020D   26147.15503960 -.00000394  00000+0 -11470-2 0  9997
2 45427  87.8916  25.2549 0001714  82.1333 277.9990 13.11417996299918
ONEWEB-0061             
1 45428U 20020E   26147.18699148  .00000657  00000+0  18168-2 0  9996
2 45428  87.8913  25.2337 0001769  80.1898 279.9429 13.11416863299871
ONEWEB-0081             
1 45429U 20020F   26147.16847697  .00000028  00000+0  43462-4 0  9998
2 45429  87.8913  25.2485 0002001  78.4798 281.6555 13.11418632299983
ONEWEB-0069             
1 45430U 20020G   26147.17053689  .00018763  00000+0  53078-1 0  9997
2 45430  87.8924  25.2525 0001736  78.9817 281.1506 13.11054617299916
ONEWEB-0031             
1 45431U 20020H   26147.20577640  .00000070  00000+0  16139-3 0  9991
2 45431  87.8903  25.2506 0001609  81.5440 278.5871 13.11414164299905
ONEWEB-0027             
1 45432U 20020J   26147.13039057  .00000201  00000+0  49731-3 0  9999
2 45432  87.9159  10.0416 0001569  94.2486 265.8824 13.16053152303586
ONEWEB-0064             
1 45433U 20020K   26147.20408771  .00000199  00000+0  52579-3 0  9991
2 45433  87.8907  25.2418 0001636  84.5007 275.6307 13.11415673299936
