[{"OBJECT_NAME":"ONEWEB-0056","OBJECT_ID":"2020-008AE","EPOCH":"2026-05-27T05:00:37.557792","MEAN_MOTION":13.10370905,"ECCENTRICITY":0.0001747,"INCLINATION":87.8862,"RA_OF_ASC_NODE":40.4361,"ARG_OF_PERICENTER":88.9483,"MEAN_ANOMALY":271.1844,"EPHEMERIS_TYPE":0,"CLASSIFICATION_TYPE":"U","NORAD_CAT_ID":45159,"ELEMENT_SET_NO":999,"REV_AT_EPOCH":30543,"BSTAR":-0.00020004,"MEAN_MOTION_DOT":-5.7e-07,"MEAN_MOTION_DDOT":0.0},{"OBJECT_NAME":"ONEWEB-0057","OBJECT_ID":"2020-008AF","EPOCH":"2026-05-27T05:24:57.458592","MEAN_MOTION":13.10345379,"ECCENTRICITY":0.0002776,"INCLINATION":87.8872,"RA_OF_ASC_NODE":40.4456,"ARG_OF_PERICENTER":78.7838,"MEAN_ANOMALY":281.3601,"EPHEMERIS_TYPE":0,"CLASSIFICATION_TYPE":"U","NORAD_CAT_ID":45160,"ELEMENT_SET_NO":999,"REV_AT_EPOCH":30560,"BSTAR":0.0074845,"MEAN_MOTION_DOT":2.625e-05,"MEAN_MOTION_DDOT":0.0},{"OBJECT_NAME":"ONEWEB-0058","OBJECT_ID":"2020-008AG","EPOCH":"2026-05-27T05:05:47.740704","MEAN_MOTION":13.10376849,"ECCENTRICITY":0.0001691,"INCLINATION":87.8856,"RA_OF_ASC_NODE":40.4551,"ARG_OF_PERICENTER":72.9309,"MEAN_ANOMALY":287.2004,"EPHEMERIS_TYPE":0,"CLASSIFICATION_TYPE":"U","NORAD_CAT_ID":45161,"ELEMENT_SET_NO":999,"REV_AT_EPOCH":30567,"BSTAR":0.00040876000000000004,"MEAN_MOTION_DOT":1.55e-06,"MEAN_MOTION_DDOT":0.0},{"OBJECT_NAME":"ONEWEB-0059","OBJECT_ID":"2020-008AH","EPOCH":"2026-05-27T05:01:01.678944","MEAN_MOTION":13.10371838,"ECCENTRICITY":0.0001873,"INCLINATION":87.8855,"RA_OF_ASC_NODE":40.4548,"ARG_OF_PERICENTER":73.6194,"MEAN_ANOMALY":286.5139,"EPHEMERIS_TYPE":0,"CLASSIFICATION_TYPE":"U","NORAD_CAT_ID":45162,"ELEMENT_SET_NO":999,"REV_AT_EPOCH":30557,"BSTAR":-4.6519e-05,"MEAN_MOTION_DOT":-4e-08,"MEAN_MOTION_DDOT":0.0},{"OBJECT_NAME":"ONEWEB-0062","OBJECT_ID":"2020-008AJ","EPOCH":"2026-05-27T05:34:05.979360","MEAN_MOTION":13.10372289,"ECCENTRICITY":0.0001412,"INCLINATION":87.8857,"RA_OF_ASC_NODE":40.436,"ARG_OF_PERICENTER":73.1469,"MEAN_ANOMALY":286.9813,"EPHEMERIS_TYPE":0,"CLASSIFICATION_TYPE":"U","NORAD_CAT_ID":45163,"ELEMENT_SET_NO":999,"REV_AT_EPOCH":30544,"BSTAR":0.002115,"MEAN_MOTION_DOT":7.51e-06,"MEAN_MOTION_DDOT":0.0},{"OBJECT_NAME":"ONEWEB-0065","OBJECT_ID":"2020-008AK","EPOCH":"2026-05-27T04:31:55.364736","MEAN_MOTION":13.10372858,"ECCENTRICITY":0.0002122,"INCLINATION":87.8858,"RA_OF_ASC_NODE":40.4528,"ARG_OF_PERICENTER":86.542,"MEAN_ANOMALY":273.595,"EPHEMERIS_TYPE":0,"CLASSIFICATION_TYPE":"U","NORAD_CAT_ID":45164,"ELEMENT_SET_NO":999,"REV_AT_EPOCH":30513,"BSTAR":-0.0016502,"MEAN_MOTION_DOT":-5.63e-06,"MEAN_MOTION_DDOT":0.0},{"OBJECT_NAME":"ONEWEB-0066","OBJECT_ID":"2020-020A","EPOCH":"2026-05-27T03:57:42.943104","MEAN_MOTION":13.11418812,"ECCENTRICITY":0.0001856,"INCLINATION":87.8909,"RA_OF_ASC_NODE":25.2537,"ARG_OF_PERICENTER":76.4781,"MEAN_ANOMALY":283.6554,"EPHEMERIS_TYPE":0,"CLASSIFICATION_TYPE":"U","NORAD_CAT_ID":45424,"ELEMENT_SET_NO":999,"REV_AT_EPOCH":29992,"BSTAR":-0.00024918,"MEAN_MOTION_DOT":-7.6e-07,"MEAN_MOTION_DDOT":0.0},{"OBJECT_NAME":"ONEWEB-0067","OBJECT_ID":"2020-020B","EPOCH":"2026-05-27T04:52:25.555584","MEAN_MOTION":13.11420961,"ECCENTRICITY":0.0001977,"INCLINATION":87.8926,"RA_OF_ASC_NODE":25.1646,"ARG_OF_PERICENTER":84.1658,"MEAN_ANOMALY":275.9696,"EPHEMERIS_TYPE":0,"CLASSIFICATION_TYPE":"U","NORAD_CAT_ID":45425,"ELEMENT_SET_NO":999,"REV_AT_EPOCH":29998,"BSTAR":0.00061149,"MEAN_MOTION_DOT":2.29e-06,"MEAN_MOTION_DDOT":0.0},{"OBJECT_NAME":"ONEWEB-0080","OBJECT_ID":"2020-020C","EPOCH":"2026-05-27T04:51:38.003616","MEAN_MOTION":13.11414207,"ECCENTRICITY":0.000148,"INCLINATION":87.8917,"RA_OF_ASC_NODE":25.241,"ARG_OF_PERICENTER":79.0152,"MEAN_ANOMALY":281.1142,"EPHEMERIS_TYPE":0,"CLASSIFICATION_TYPE":"U","NORAD_CAT_ID":45426,"ELEMENT_SET_NO":999,"REV_AT_EPOCH":29995,"BSTAR":0.00065901,"MEAN_MOTION_DOT":2.46e-06,"MEAN_MOTION_DDOT":0.0},{"OBJECT_NAME":"ONEWEB-0090","OBJECT_ID":"2020-020D","EPOCH":"2026-05-27T03:43:15.421440","MEAN_MOTION":13.11417996,"ECCENTRICITY":0.0001714,"INCLINATION":87.8916,"RA_OF_ASC_NODE":25.2549,"ARG_OF_PERICENTER":82.1333,"MEAN_ANOMALY":277.999,"EPHEMERIS_TYPE":0,"CLASSIFICATION_TYPE":"U","NORAD_CAT_ID":45427,"ELEMENT_SET_NO":999,"REV_AT_EPOCH":29991,"BSTAR":-0.001147,"MEAN_MOTION_DOT":-3.94e-06,"MEAN_MOTION_DDOT":0.0},{"OBJECT_NAME":"ONEWEB-0061","OBJECT_ID":"2020-020E","EPOCH":"2026-05-27T04:29:16.063872","MEAN_MOTION":13.11416863,"ECCENTRICITY":0.0001769,"INCLINATION":87.8913,"RA_OF_ASC_NODE":25.2337,"ARG_OF_PERICENTER":80.1898,"MEAN_ANOMALY":279.9429,"EPHEMERIS_TYPE":0,"CLASSIFICATION_TYPE":"U","NORAD_CAT_ID":45428,"ELEMENT_SET_NO":999,"REV_AT_EPOCH":29987,"BSTAR":0.0018168000000000001,"MEAN_MOTION_DOT":6.57e-06,"MEAN_MOTION_DDOT":0.0},{"OBJECT_NAME":"ONEWEB-0081","OBJECT_ID":"2020-020F","EPOCH":"2026-05-27T04:02:36.410208","MEAN_MOTION":13.11418632,"ECCENTRICITY":0.0002001,"INCLINATION":87.8913,"RA_OF_ASC_NODE":25.2485,"ARG_OF_PERICENTER":78.4798,"MEAN_ANOMALY":281.6555,"EPHEMERIS_TYPE":0,"CLASSIFICATION_TYPE":"U","NORAD_CAT_ID":45429,"ELEMENT_SET_NO":999,"REV_AT_EPOCH":29998,"BSTAR":4.3462000000000005e-05,"MEAN_MOTION_DOT":2.8e-07,"MEAN_MOTION_DDOT":0.0},{"OBJECT_NAME":"ONEWEB-0069","OBJECT_ID":"2020-020G","EPOCH":"2026-05-27T04:05:34.387296","MEAN_MOTION":13.11054617,"ECCENTRICITY":0.0001736,"INCLINATION":87.8924,"RA_OF_ASC_NODE":25.2525,"ARG_OF_PERICENTER":78.9817,"MEAN_ANOMALY":281.1506,"EPHEMERIS_TYPE":0,"CLASSIFICATION_TYPE":"U","NORAD_CAT_ID":45430,"ELEMENT_SET_NO":999,"REV_AT_EPOCH":29991,"BSTAR":0.05307800000000001,"MEAN_MOTION_DOT":0.00018763,"MEAN_MOTION_DDOT":0.0},{"OBJECT_NAME":"ONEWEB-0031","OBJECT_ID":"2020-020H","EPOCH":"2026-05-27T04:56:19.080960","MEAN_MOTION":13.11414164,"ECCENTRICITY":0.0001609,"INCLINATION":87.8903,"RA_OF_ASC_NODE":25.2506,"ARG_OF_PERICENTER":81.544,"MEAN_ANOMALY":278.5871,"EPHEMERIS_TYPE":0,"CLASSIFICATION_TYPE":"U","NORAD_CAT_ID":45431,"ELEMENT_SET_NO":999,"REV_AT_EPOCH":29990,"BSTAR":0.00016139,"MEAN_MOTION_DOT":7e-07,"MEAN_MOTION_DDOT":0.0},{"OBJECT_NAME":"ONEWEB-0027","OBJECT_ID":"2020-020J","EPOCH":"2026-05-27T03:07:45.745248","MEAN_MOTION":13.16053152,"ECCENTRICITY":0.0001569,"INCLINATION":87.9159,"RA_OF_ASC_NODE":10.0416,"ARG_OF_PERICENTER":94.2486,"MEAN_ANOMALY":265.8824,"EPHEMERIS_TYPE":0,"CLASSIFICATION_TYPE":"U","NORAD_CAT_ID":45432,"ELEMENT_SET_NO":999,"REV_AT_EPOCH":30358,"BSTAR":0.0004973099999999999,"MEAN_MOTION_DOT":2.01e-06,"MEAN_MOTION_DDOT":0.0},{"OBJECT_NAME":"ONEWEB-0064","OBJECT_ID":"2020-020K","EPOCH":"2026-05-27T04:53:53.178144","MEAN_MOTION":13.11415673,"ECCENTRICITY":0.0001636,"INCLINATION":87.8907,"RA_OF_ASC_NODE":25.2418,"ARG_OF_PERICENTER":84.5007,"MEAN_ANOMALY":275.6307,"EPHEMERIS_TYPE":0,"CLASSIFICATION_TYPE":"U","NORAD_CAT_ID":45433,"ELEMENT_SET_NO":999,"REV_AT_EPOCH":29993,"BSTAR":0.0005257899999999999,"MEAN_MOTION_DOT":1.99e-06,"MEAN_MOTION_DDOT":0.0}]